     2.100          NAVIGATION                              RINEX VERSION / TYPE
fic2rin                                 07/04/2014 00:33:21 PGM / RUN BY / DATE
                                                            END OF HEADER
 2 14  7  3  9 59 44.0  .504601281136D-03  .216004991671D-11  .000000000000D+00
     .140000000000D+02 -.598437500000D+02  .474555481426D-08  .197588553904D+01
    -.301748514175D-05  .136072990717D-01  .997446477413D-05  .515363904953D+04
     .381584000000D+06 -.309199094772D-06 -.235343904742D+01 -.134110450745D-06
     .939620320032D+00  .174875000000D+03 -.240873087740D+01 -.816391148825D-08
     .357157734196D-12  .100000000000D+01  .179900000000D+04  .000000000000D+00
     .240000000000D+01  .000000000000D+00 -.204890966415D-07  .140000000000D+02
     .375906000000D+06  .400000000000D+01
18 14  7  3  9 59 44.0  .329242087901D-03  .227373675443D-11  .000000000000D+00
     .500000000000D+01  .446250000000D+02  .547201364562D-08 -.121782517741D+01
     .270828604698D-05  .154363837792D-01  .716932117939D-05  .515370688629D+04
     .381584000000D+06  .182539224625D-06 -.129121294416D+01  .314787030220D-06
     .925329974473D+00  .221437500000D+03 -.202567177046D+01 -.850249702027D-08
     .329656588663D-09  .100000000000D+01  .179900000000D+04  .000000000000D+00
     .240000000000D+01  .000000000000D+00 -.111758708954D-07  .500000000000D+01
     .376506000000D+06  .400000000000D+01
11 14  7  3  9 59 44.0 -.502235721797D-03 -.306954461848D-11  .000000000000D+00
     .500000000000D+01 -.618437500000D+02  .613132682294D-08  .882061419067D+00
    -.330433249474D-05  .151198785752D-01  .860914587975D-05  .515370697212D+04
     .381584000000D+06 -.214204192162D-06 -.264963715202D+01 -.186264514923D-08
     .891040968233D+00  .179656250000D+03  .129773822003D+01 -.907359223725D-08
    -.165721188667D-09  .100000000000D+01  .179900000000D+04  .000000000000D+00
     .240000000000D+01  .000000000000D+00 -.121071934700D-07  .500000000000D+01
     .377076000000D+06  .400000000000D+01
 2 14  7  3 11 59 44.0  .504616647959D-03  .216004991671D-11  .000000000000D+00
     .260000000000D+02 -.552187500000D+02  .463269297026D-08  .302616401960D+01
    -.279955565929D-05  .136079574004D-01  .103227794170D-04  .515363695717D+04
     .388784000000D+06  .745058059692D-08 -.235349655765D+01 -.167638063431D-06
     .939621693712D+00  .165468750000D+03 -.240880496396D+01 -.787175646168D-08
     .750031241812D-11  .100000000000D+01  .179900000000D+04  .000000000000D+00
     .240000000000D+01  .000000000000D+00 -.204890966415D-07  .260000000000D+02
     .381606000000D+06  .400000000000D+01
11 14  7  3 11 59 44.0 -.502258073539D-03 -.306954461848D-11  .000000000000D+00
     .110000000000D+02 -.705312500000D+02  .585988694496D-08  .193211608487D+01
    -.388547778130D-05  .151201138506D-01  .795349478722D-05  .515371031952D+04
     .388784000000D+06  .651925802231D-07 -.264970212460D+01 -.357627868652D-06
     .891041983498D+00  .188562500000D+03  .129785447813D+01 -.863071664685D-08
    -.485734518507D-10  .100000000000D+01  .179900000000D+04  .000000000000D+00
     .240000000000D+01  .000000000000D+00 -.121071934700D-07  .110000000000D+02
     .381606000000D+06  .400000000000D+01
18 14  7  3 11 59 44.0  .329258851707D-03  .227373675443D-11  .000000000000D+00
     .600000000000D+01  .382500000000D+02  .554523098113D-08 -.167728284476D+00
     .208802521229D-05  .154353008838D-01  .797025859356D-05  .515370391846D+04
     .388784000000D+06 -.968575477600D-07 -.129127563312D+01  .206753611565D-06
     .925331506149D+00  .212406250000D+03 -.202559947743D+01 -.873536386297D-08
     .352871841386D-09  .100000000000D+01  .179900000000D+04  .000000000000D+00
     .240000000000D+01  .000000000000D+00 -.111758708954D-07  .600000000000D+01
     .381606000000D+06  .400000000000D+01
 1 14  7  3 12  0  0.0  .167991966009D-04  .909494701773D-12  .000000000000D+00
     .670000000000D+02 -.346562500000D+02  .428553565262D-08  .239755351180D+01
    -.179000198841D-05  .322930340189D-02  .996701419353D-05  .515368223000D+04
     .388800000000D+06 -.409781932831D-07 -.232307632605D+01  .931322574615D-08
     .961057087702D+00  .186250000000D+03  .325703883674D+00 -.788818571745D-08
     .367872466222D-10  .100000000000D+01  .179900000000D+04  .000000000000D+00
     .240000000000D+01  .000000000000D+00  .558793544769D-08  .670000000000D+02
     .381606000000D+06  .400000000000D+01
 3 14  7  3 12  0  0.0  .385731458664D-03  .477484718431D-11  .000000000000D+00
     .420000000000D+02 -.418750000000D+02  .502449500467D-08  .309846995112D+01
    -.207871198654D-05  .172001654282D-01  .379420816898D-05  .515380883789D+04
     .388800000000D+06  .238418579102D-06  .275513695076D+01 -.104308128357D-06
     .939008513062D+00  .293375000000D+03  .139702738293D+01 -.819748431527D-08
    -.946467995620D-10  .100000000000D+01  .179900000000D+04  .000000000000D+00
     .240000000000D+01  .000000000000D+00 -.465661287308D-08  .420000000000D+02
     .381606000000D+06  .400000000000D+01
 4 14  7  3 12  0  0.0  .735232606530D-05  .000000000000D+00  .000000000000D+00
     .740000000000D+02 -.380000000000D+02  .481484341470D-08  .409803180485D+00
    -.181794166565D-05  .107446776237D-01  .101234763861D-04  .515196310616D+04
     .388800000000D+06 -.182539224625D-06 -.233754806467D+01  .104308128357D-06
     .938623102905D+00  .174781250000D+03  .104610542336D+01 -.830248868912D-08
    -.664313385605D-10  .100000000000D+01  .179900000000D+04  .000000000000D+00
     .240000000000D+01  .000000000000D+00 -.651925802231D-08  .740000000000D+02
     .381606000000D+06  .400000000000D+01
 5 14  7  3 12  0  0.0 -.361057929695D-03  .295585778076D-11  .000000000000D+00
     .320000000000D+02  .457500000000D+02  .490949021426D-08 -.868107107254D+00
     .241398811340D-05  .362943217624D-02  .795535743237D-05  .515362619209D+04
     .388800000000D+06  .106170773506D-06 -.128519874457D+01 -.279396772385D-07
     .946769324194D+00  .212750000000D+03  .298771152218D+00 -.824212903204D-08
     .363943731146D-09  .100000000000D+01  .179900000000D+04  .000000000000D+00
     .240000000000D+01  .000000000000D+00 -.102445483208D-07  .320000000000D+02
     .381606000000D+06  .400000000000D+01
 6 14  7  3 12  0  0.0  .294856727123D-05 -.261479726760D-11  .000000000000D+00
     .720000000000D+02 -.392187500000D+02  .419946063868D-08 -.113426245993D+01
    -.194460153580D-05  .353470095433D-03  .103954225779D-04  .515354696465D+04
     .388800000000D+06 -.931322574615D-08 -.233164856956D+01  .298023223877D-07
     .960995988929D+00  .177468750000D+03  .227016951482D+01 -.785818446778D-08
     .750031241812D-11  .100000000000D+01  .179900000000D+04  .000000000000D+00
     .240000000000D+01  .000000000000D+00  .605359673500D-08  .720000000000D+02
     .381606000000D+06  .400000000000D+01
 7 14  7  3 12  0  0.0  .364514999092D-03  .420641299570D-11  .000000000000D+00
     .390000000000D+02  .178125000000D+02  .429089301863D-08  .178590284588D+01
     .104121863842D-05  .757429806981D-02  .928901135921D-05  .515362747002D+04
     .388800000000D+06 -.558793544769D-07  .837185355148D+00  .217929482460D-06
     .973310843561D+00  .209718750000D+03 -.283088872437D+01 -.795604568695D-08
    -.215366113720D-09  .100000000000D+01  .179900000000D+04  .000000000000D+00
     .240000000000D+01  .000000000000D+00 -.107102096081D-07  .390000000000D+02
     .381606000000D+06  .400000000000D+01
 8 14  7  3 12  0  0.0  .145290978253D-04  .227373675443D-12  .000000000000D+00
     .115000000000D+03  .225625000000D+02  .375837083695D-08  .136511928757D+01
     .142864882946D-05  .138919852907D-01  .957958400249D-05  .515335532951D+04
     .388800000000D+06  .316649675369D-07  .937430665213D+00  .217929482460D-06
     .996573640207D+00  .215687500000D+03 -.276844996464D+01 -.776818071876D-08
    -.311084386485D-09  .100000000000D+01  .179900000000D+04  .000000000000D+00
     .240000000000D+01  .000000000000D+00 -.419095158577D-08  .115000000000D+03
     .381606000000D+06  .400000000000D+01
 9 14  7  3 12  0  0.0  .110543332994D-03  .621867002337D-10  .000000000000D+00
     .122000000000D+03  .141250000000D+02  .398480884043D-08  .280256595302D+01
     .903382897377D-06  .171632453566D-01  .933744013309D-05  .515368268776D+04
     .388800000000D+06  .411644577980D-06  .817090955255D+00  .186264514923D-07
     .981855768542D+00  .204375000000D+03  .183298604211D+01 -.758388732792D-08
    -.282868925483D-09  .100000000000D+01  .179900000000D+04  .000000000000D+00
     .240000000000D+01  .630000000000D+02 -.605359673500D-08  .122000000000D+03
     .381606000000D+06  .400000000000D+01
10 14  7  3 12  0  0.0 -.132103450596D-03 -.147792889038D-11  .000000000000D+00
     .600000000000D+01  .472500000000D+02  .513414242907D-08 -.697078131416D+00
     .272877514362D-05  .136527656578D-01  .761821866035D-05  .515374075699D+04
     .388800000000D+06  .894069671631D-07 -.126813881420D+01  .255182385445D-06
     .941570462978D+00  .223312500000D+03  .868639622601D+00 -.852428364206D-08
     .336799743347D-09  .100000000000D+01  .179900000000D+04  .000000000000D+00
     .240000000000D+01  .000000000000D+00 -.279396772385D-08  .600000000000D+01
     .381606000000D+06  .400000000000D+01
12 14  7  3 12  0  0.0  .215598847717D-03  .250111042988D-11  .000000000000D+00
     .530000000000D+02  .369062500000D+02  .399195199511D-08  .131089784695D+01
     .197440385818D-05  .512790761422D-02  .691041350365D-05  .515359710503D+04
     .388800000000D+06  .745058059692D-08  .190100983100D+01  .875443220139D-07
     .987638477438D+00  .259437500000D+03  .474127056449D+00 -.793640201157D-08
     .112504686272D-09  .100000000000D+01  .179900000000D+04  .000000000000D+00
     .240000000000D+01  .000000000000D+00 -.121071934700D-07  .530000000000D+02
     .381606000000D+06  .400000000000D+01
